NORAD_CAT_ID,OBJECT_NAME,OBJECT_TYPE,EPOCH,MEAN_MOTION,ECCENTRICITY,INCLINATION,RA_OF_ASC_NODE,ARG_OF_PERICENTER,MEAN_ANOMALY,BSTAR,MEAN_MOTION_DOT,MEAN_MOTION_DDOT,TLE_LINE0,TLE_LINE1,TLE_LINE2,SEMIMAJOR_AXIS,PERIOD,APOGEE,PERIGEE,DECAYED
52270.0,STARLINK-3804,PAYLOAD,2022-11-12 19:51:55,15.08840164,0.0001549,53.2179,153.8755,79.148,280.9686,7.0319e-05,8.31e-06,0.0,0 STARLINK-3804,1 52270U 22041K   22316.82772073  .00000831  00000-0  70319-4 0  9991,2 52270  53.2179 153.8755 0001549  79.1480 280.9686 15.08840164 31265,6917.88,95.438,540.816,538.673,0.0
52270.0,STARLINK-3804,PAYLOAD,2022-11-12 23:02:41,15.08841195,0.000155,53.2177,153.2807,78.3895,281.7271,7.952899999999999e-05,9.78e-06,0.0,0 STARLINK-3804,1 52270U 22041K   22316.96019991  .00000978  00000-0  79529-4 0  9993,2 52270  53.2177 153.2807 0001550  78.3895 281.7271 15.08841195 32498,6917.877,95.437,540.814,538.669,0.0
52270.0,STARLINK-3804,PAYLOAD,2022-11-13 19:42:41,15.08844277,0.0001332,53.2179,149.4145,71.2624,288.8513,4.7149e-05,4.63e-06,0.0,0 STARLINK-3804,1 52270U 22041K   22317.82131813  .00000463  00000-0  47149-4 0  9999,2 52270  53.2179 149.4145 0001332  71.2624 288.8513 15.08844277 31414,6917.8669999999975,95.437,540.654,538.811,0.0
52270.0,STARLINK-3804,PAYLOAD,2022-11-13 22:53:27,15.08859579,0.0001539,53.2177,148.82,76.9235,283.1928,0.00013162,1.808e-05,0.0,0 STARLINK-3804,1 52270U 22041K   22317.95378552  .00001808  00000-0  13162-3 0  9997,2 52270  53.2177 148.8200 0001539  76.9235 283.1928 15.08859579 32641,6917.821,95.436,540.75,538.621,0.0
52270.0,STARLINK-3804,PAYLOAD,2022-11-14 11:36:32,15.088499800000005,0.0001764999999999,53.2168,146.4409,84.8811,275.2382,5.050800000000001e-05,5.16e-06,0.0,0 STARLINK-3804,1 52270U 22041K   22318.48371059  .00000516  00000-0  50508-4 0  9992,2 52270  53.2168 146.4409 0001765  84.8811 275.2382 15.08849980 31511,6917.85,95.437,540.936,538.494,0.0
52270.0,STARLINK-3804,PAYLOAD,2022-11-14 17:58:05,15.08836196,0.0001557,53.2173,145.2514,77.717,282.3996,2.9321e-05,1.79e-06,0.0,0 STARLINK-3804,1 52270U 22041K   22318.74867823  .00000179  00000-0  29321-4 0  9994,2 52270  53.2173 145.2514 0001557  77.7170 282.3996 15.08836196 32762,6917.892,95.438,540.8340000000002,538.68,0.0
52270.0,STARLINK-3804,PAYLOAD,2022-11-15 13:02:43,15.08829382,0.0001262,53.2174,141.6824,72.6047,287.5083,3.4995e-05,2.69e-06,0.0,0 STARLINK-3804,1 52270U 22041K   22319.54356212  .00000269  00000-0  34995-4 0  9991,2 52270  53.2174 141.6824 0001262  72.6047 287.5083 15.08829382 31679,6917.913000000001,95.438,540.651,538.905,0.0
52270.0,STARLINK-3804,PAYLOAD,2022-11-15 19:24:16,15.08824893,0.0001284999999999,53.2173,140.4931,71.8001,288.3131,-1.2859000000000003e-05,-4.92e-06,0.0,0 STARLINK-3804,1 52270U 22041K   22319.80852800 -.00000492  00000-0 -12859-4 0  9999,2 52270  53.2173 140.4931 0001285  71.8001 288.3131 15.08824893 32924,6917.927,95.439,540.681,538.903,0.0
52270.0,STARLINK-3804,PAYLOAD,2022-11-16 12:53:31,15.08825249,0.0001402,53.2173,137.2224,71.1127,289.0017,-3.9103e-05,-9.1e-06,0.0,0 STARLINK-3804,1 52270U 22041K   22320.53717253 -.00000910  00000-0 -39103-4 0  9999,2 52270  53.2173 137.2224 0001402  71.1127 289.0017 15.08825249 31821,6917.925,95.438,540.76,538.821,0.0
52270.0,STARLINK-3804,PAYLOAD,2022-11-16 19:15:04,15.088279,0.0001425,53.2174,136.0331,72.539,287.5758,-1.4413e-05,-5.17e-06,0.0,0 STARLINK-3804,1 52270U 22041K   22320.80213221 -.00000517  00000-0 -14413-4 0  9995,2 52270  53.2174 136.0331 0001425  72.5390 287.5758 15.08827900 31865,6917.917,95.438,540.768,538.797,0.0
52270.0,STARLINK-3804,PAYLOAD,2022-11-17 12:44:19,15.08825438,0.0001515,53.2179,132.7623,77.2861,282.83,8.5011e-05,1.065e-05,0.0,0 STARLINK-3804,1 52270U 22041K   22321.53077557  .00001065  00000-0  85011-4 0  9995,2 52270  53.2179 132.7623 0001515  77.2861 282.8300 15.08825438 31979,6917.925,95.438,540.8380000000002,538.742,0.0
52270.0,STARLINK-3804,PAYLOAD,2022-11-18 10:59:43,15.08834218,0.000155,53.2182,128.5992,76.2725,283.844,8.2425e-05,1.024e-05,0.0,0 STARLINK-3804,1 52270U 22041K   22322.45813676  .00001024  00000-0  82425-4 0  9998,2 52270  53.2182 128.5992 0001550  76.2725 283.8440 15.08834218 33325,6917.898,95.438,540.835,538.691,0.0
52270.0,STARLINK-3804,PAYLOAD,2022-11-19 10:50:29,15.08845693,0.0001575,53.2185,124.1392,75.4271,284.6895,9.8319e-05,1.277e-05,0.0,0 STARLINK-3804,1 52270U 22041K   22323.45173011  .00001277  00000-0  98319-4 0  9990,2 52270  53.2185 124.1392 0001575  75.4271 284.6895 15.08845693 33476,6917.863,95.437,540.818,538.638,0.0
52270.0,STARLINK-3804,PAYLOAD,2022-11-19 20:22:48,15.08844129,0.0001315,53.219,122.3557,71.8776,288.2359,7.4859e-05,9.04e-06,0.0,0 STARLINK-3804,1 52270U 22041K   22323.84916916  .00000904  00000-0  74859-4 0  9991,2 52270  53.2190 122.3557 0001315  71.8776 288.2359 15.08844129 32328,6917.868,95.437,540.6419999999998,538.823,0.0
52270.0,STARLINK-3804,PAYLOAD,2022-11-20 04:19:44,15.08837305,0.0001318,53.2181,120.8685,71.5015,288.612,1.0862e-06,-2.71e-06,0.0,0 STARLINK-3804,1 52270U 22041K   22324.18037581 -.00000271  00000-0  10862-5 0  9994,2 52270  53.2181 120.8685 0001318  71.5015 288.6120 15.08837305 33586,6917.889,95.438,540.665,538.842,0.0
52270.0,STARLINK-3804,PAYLOAD,2022-11-20 10:41:17,15.08837725,0.0001321,53.2178,119.679,71.9714,288.1422,-2.0149e-05,-6.09e-06,0.0,0 STARLINK-3804,1 52270U 22041K   22324.44533629 -.00000609  00000-0 -20149-4 0  9991,2 52270  53.2178 119.6790 0001321  71.9714 288.1422 15.08837725 32416,6917.887,95.438,540.6659999999998,538.8380000000002,0.0
52270.0,STARLINK-3804,PAYLOAD,2022-11-20 17:02:49,15.08840964,0.0001406,53.2178,118.4899,71.4595,288.655,3.5271e-06,-2.32e-06,0.0,0 STARLINK-3804,1 52270U 22041K   22324.71029335 -.00000232  00000-0  35271-5 0  9999,2 52270  53.2178 118.4899 0001406  71.4595 288.6550 15.08840964 32459,6917.877,95.437,540.715,538.77,0.0
52270.0,STARLINK-3804,PAYLOAD,2022-11-21 10:32:03,15.08844446,0.0001479,53.2178,115.2184,74.5835,285.532,-1.0521e-05,-4.55e-06,0.0,0 STARLINK-3804,1 52270U 22041K   22325.43892985 -.00000455  00000-0 -10521-4 0  9996,2 52270  53.2178 115.2184 0001479  74.5835 285.5320 15.08844446 33778,6917.8669999999975,95.437,540.755,538.7090000000002,0.0
52270.0,STARLINK-3804,PAYLOAD,2022-11-21 16:53:36,15.08841575,0.0001314,53.2183,114.0285,62.525,297.5876,-0.00012285,-2.243e-05,0.0,0 STARLINK-3804,1 52270U 22041K   22325.70389533 -.00002243  00000-0 -12285-3 0  9991,2 52270  53.2183 114.0285 0001314  62.5250 297.5876 15.08841575 33813,6917.876,95.437,540.65,538.832,0.0
52270.0,STARLINK-3804,PAYLOAD,2022-11-22 10:22:51,15.08832687,0.0001325,53.2187,110.758,72.2321,287.8815,-2.0083e-05,-6.07e-06,0.0,0 STARLINK-3804,1 52270U 22041K   22326.43253953 -.00000607  00000-0 -20083-4 0  9996,2 52270  53.2187 110.7580 0001325  72.2321 287.8815 15.08832687 32714,6917.903,95.438,540.684,538.851,0.0
52270.0,STARLINK-3804,PAYLOAD,2022-11-22 16:44:23,15.08836474,0.0001361,53.2188,109.569,73.4506,286.6635,1.4163e-05,-6.3e-07,0.0,0 STARLINK-3804,1 52270U 22041K   22326.69749661 -.00000063  00000-0  14163-4 0  9997,2 52270  53.2188 109.5690 0001361  73.4506 286.6635 15.08836474 32750,6917.891,95.438,540.698,538.815,0.0
52270.0,STARLINK-3804,PAYLOAD,2022-11-23 10:13:38,15.08831781,8.8e-05,53.2196,106.298,58.9738,301.1341,5.033800000000001e-05,5.13e-06,0.0,0 STARLINK-3804,1 52270U 22041K   22327.42613766  .00000513  00000-0  50338-4 0  9998,2 52270  53.2196 106.2980 0000880  58.9738 301.1341 15.08831781 34075,6917.906,95.438,540.379,539.1619999999998,0.0
52270.0,STARLINK-3804,PAYLOAD,2022-11-23 16:35:10,15.08837579,8.3e-05,53.2194,105.109,43.5692,316.5365,0.00010178,1.332e-05,0.0,0 STARLINK-3804,1 52270U 22041K   22327.69109343  .00001332  00000-0  10178-3 0  9995,2 52270  53.2194 105.1090 0000830  43.5692 316.5365 15.08837579 32904,6917.888000000001,95.438,540.327,539.179,0.0
52270.0,STARLINK-3804,PAYLOAD,2022-11-24 10:04:25,15.08831583,0.0001008,53.2197,101.8393,41.4935,318.6133,3.287e-05,2.35e-06,0.0,0 STARLINK-3804,1 52270U 22041K   22328.41974172  .00000235  00000-0  32870-4 0  9991,2 52270  53.2197 101.8393 0001008  41.4935 318.6133 15.08831583 33019,6917.906,95.438,540.4680000000002,539.0740000000002,0.0
52270.0,STARLINK-3804,PAYLOAD,2022-11-24 13:15:11,15.0883704,0.0001248,53.2196,101.2433,67.8999,292.2125,2.0697e-05,4.2e-07,0.0,0 STARLINK-3804,1 52270U 22041K   22328.55221937  .00000042  00000-0  20697-4 0  9990,2 52270  53.2196 101.2433 0001248  67.8999 292.2125 15.08837040 34243,6917.889,95.438,540.618,538.891,0.0
52270.0,STARLINK-3804,PAYLOAD,2022-11-25 01:58:16,15.08843676,0.0001225,53.2196,98.8651,67.2398,292.8723,7.066800000000001e-05,8.37e-06,0.0,0 STARLINK-3804,1 52270U 22041K   22329.08213305  .00000837  00000-0  70668-4 0  9994,2 52270  53.2196  98.8651 0001225  67.2398 292.8723 15.08843676 34329,6917.869000000002,95.437,540.582,538.887,0.0
52270.0,STARLINK-3804,PAYLOAD,2022-11-25 16:16:43,15.08861885,0.0001087,53.2192,96.1874,344.7317,15.3642,-0.0001079,-2.006e-05,0.0,0 STARLINK-3804,1 52270U 22041K   22329.67828564 -.00002006  00000-0 -10790-3 0  9999,2 52270  53.2192  96.1874 0001087 344.7317  15.3642 15.08861885 33209,6917.813,95.436,540.43,538.927,0.0
52270.0,STARLINK-3804,PAYLOAD,2022-11-26 01:49:03,15.08839278,0.0001321,53.2185,94.4035,65.061,295.0519,6.0606e-05,6.77e-06,0.0,0 STARLINK-3804,1 52270U 22041K   22330.07573492  .00000677  00000-0  60606-4 0  9994,2 52270  53.2185  94.4035 0001321  65.0610 295.0519 15.08839278 34472,6917.8830000000025,95.438,540.661,538.8340000000002,0.0
52270.0,STARLINK-3804,PAYLOAD,2022-11-26 08:10:35,15.08842627,0.00013,53.2195,93.2145,63.4834,296.6291,7.263e-05,8.68e-06,0.0,0 STARLINK-3804,1 52270U 22041K   22330.34069221  .00000868  00000-0  72630-4 0  9996,2 52270  53.2195  93.2145 0001300  63.4834 296.6291 15.08842627 33306,6917.871999999999,95.437,540.637,538.8380000000002,0.0
